NORAD_CAT_ID,OBJECT_NAME,OBJECT_TYPE,EPOCH,MEAN_MOTION,ECCENTRICITY,INCLINATION,RA_OF_ASC_NODE,ARG_OF_PERICENTER,MEAN_ANOMALY,BSTAR,MEAN_MOTION_DOT,MEAN_MOTION_DDOT,TLE_LINE0,TLE_LINE1,TLE_LINE2,SEMIMAJOR_AXIS,PERIOD,APOGEE,PERIGEE,DECAYED
56796.0,STARLINK-6049,PAYLOAD,2023-10-29 12:34:44,14.98341066,0.000285,70.0013,358.3845,258.1394,101.9446,6.7759e-05,7.16e-06,0.0,0 STARLINK-6049,1 56796U 23078AF  23302.52412064  .00000716  00000-0  67759-4 0  9999,2 56796  70.0013 358.3845 0002850 258.1394 101.9446 14.98341066 23797,6950.159,96.106,574.004,570.043,0.0
56796.0,STARLINK-6049,PAYLOAD,2023-10-29 14:10:51,14.98342529,0.0002891,70.0008,358.2148,262.4892,97.5939,8.2277e-05,8.89e-06,0.0,0 STARLINK-6049,1 56796U 23078AF  23302.59087904  .00000889  00000-0  82277-4 0  9990,2 56796  70.0008 358.2148 0002891 262.4892  97.5939 14.98342529 23547,6950.154,96.106,574.028,570.01,0.0
56796.0,STARLINK-6049,PAYLOAD,2023-10-30 04:36:05,14.98321581,0.0002556,70.0016,356.6998,256.031,104.0565,0.00011229,1.247e-05,0.0,0 STARLINK-6049,1 56796U 23078AF  23303.19173206  .00001247  00000-0  11229-3 0  9995,2 56796  70.0016 356.6998 0002556 256.0310 104.0565 14.98321581 23895,6950.219,96.108,573.86,570.307,0.0
56796.0,STARLINK-6049,PAYLOAD,2023-10-30 20:37:26,14.98322439,0.0003023,69.9998,355.0161,266.0399,94.0415,-9.2757e-06,-2.04e-06,0.0,0 STARLINK-6049,1 56796U 23078AF  23303.85933841 -.00000204  00000-0 -92757-5 0  9998,2 56796  69.9998 355.0161 0003023 266.0399  94.0415 14.98322439 23732,6950.216,96.107,574.182,569.98,0.0
56796.0,STARLINK-6049,PAYLOAD,2023-10-31 04:38:07,14.98330983,0.0003025,69.9996,354.1743,266.7522,93.3291,-0.00012716,-1.61e-05,0.0,0 STARLINK-6049,1 56796U 23078AF  23304.19313716 -.00001610  00000-0 -12716-3 0  9996,2 56796  69.9996 354.1743 0003025 266.7522  93.3291 14.98330983 24045,6950.19,96.107,574.157,569.952,0.0
56796.0,STARLINK-6049,PAYLOAD,2023-10-31 12:38:47,14.98331396,0.0002774,70.0003,353.3326,265.8462,94.238,-6.065e-05,-8.17e-06,0.0,0 STARLINK-6049,1 56796U 23078AF  23304.52693519 -.00000817  00000-0 -60650-4 0  9994,2 56796  70.0003 353.3326 0002774 265.8462  94.2380 14.98331396 23832,6950.189,96.107,573.982,570.126,0.0
56796.0,STARLINK-6049,PAYLOAD,2023-10-31 20:39:27,14.98339887,0.0003027,70.0,352.4904,268.4131,91.6681,-0.00013712,-1.729e-05,0.0,0 STARLINK-6049,1 56796U 23078AF  23304.86073035 -.00001729  00000-0 -13712-3 0  9995,2 56796  70.0000 352.4904 0003027 268.4131  91.6681 14.98339887 23888,6950.162,96.106,574.131,569.924,0.0
56796.0,STARLINK-6049,PAYLOAD,2023-11-01 04:40:07,14.98324122,0.0002684,70.0002,351.6481,266.5827,93.5025,0.00014737,1.666e-05,0.0,0 STARLINK-6049,1 56796U 23078AF  23305.19453371  .00001666  00000-0  14737-3 0  9993,2 56796  70.0002 351.6481 0002684 266.5827  93.5025 14.98324122 24194,6950.211,96.107,573.942,570.211,0.0
56796.0,STARLINK-6049,PAYLOAD,2023-11-01 12:40:47,14.98332183,0.0002636,69.9997,350.8057,270.5602,89.5255,0.000214,2.461e-05,0.0,0 STARLINK-6049,1 56796U 23078AF  23305.52832825  .00002461  00000-0  21400-3 0  9994,2 56796  69.9997 350.8057 0002636 270.5602  89.5255 14.98332183 24249,6950.186,96.107,573.883,570.219,0.0
56796.0,STARLINK-6049,PAYLOAD,2023-11-02 04:42:08,14.98325549,0.0003139,69.9994,349.1226,271.1735,88.9064,9.8146e-05,1.078e-05,0.0,0 STARLINK-6049,1 56796U 23078AF  23306.19593414  .00001078  00000-0  98146-4 0  9991,2 56796  69.9994 349.1226 0003139 271.1735  88.9064 14.98325549 24348,6950.207,96.107,574.253,569.89,0.0
56796.0,STARLINK-6049,PAYLOAD,2023-11-02 12:42:48,14.98337515,0.0002839,69.9993,348.2811,267.3564,92.727,8.9889e-05,9.8e-06,0.0,0 STARLINK-6049,1 56796U 23078AF  23306.52972679  .00000980  00000-0  89889-4 0  9997,2 56796  69.9993 348.2811 0002839 267.3564  92.7270 14.98337515 24393,6950.17,96.107,574.008,570.061,0.0
56796.0,STARLINK-6049,PAYLOAD,2023-11-02 20:43:30,14.98295067,0.0002784,69.9996,347.4396,282.9661,77.1187,0.00051901,6.1e-05,0.0,0 STARLINK-6049,1 56796U 23078AF  23306.86354639  .00006100  00000-0  51901-3 0  9997,2 56796  69.9996 347.4396 0002784 282.9661  77.1187 14.98295067 24181,6950.301,96.109,574.101,570.231,0.0
56796.0,STARLINK-6049,PAYLOAD,2023-11-03 04:44:09,14.98327128,0.000287,69.9997,346.5984,267.92,92.163,-5.7061e-05,-7.74e-06,0.0,0 STARLINK-6049,1 56796U 23078AF  23307.19733695 -.00000774  00000-0 -57061-4 0  9994,2 56796  69.9997 346.5984 0002870 267.9200  92.1630 14.98327128 24491,6950.202,96.107,574.061,570.072,0.0
56796.0,STARLINK-6049,PAYLOAD,2023-11-03 12:44:50,14.98329813,0.0002845,69.9996,345.7572,268.6543,91.429,-4.1207e-05,-5.85e-06,0.0,0 STARLINK-6049,1 56796U 23078AF  23307.53113538 -.00000585  00000-0 -41207-4 0  9995,2 56796  69.9996 345.7572 0002845 268.6543  91.4290 14.98329813 24288,6950.193,96.107,574.036,570.081,0.0
56796.0,STARLINK-6049,PAYLOAD,2023-11-04 04:46:10,14.98329984,0.0002924,69.9996,344.074,267.931,92.1514,2.0357e-05,1.5e-06,0.0,0 STARLINK-6049,1 56796U 23078AF  23308.19873256  .00000150  00000-0  20357-4 0  9997,2 56796  69.9996 344.0740 0002924 267.9310  92.1514 14.98329984 24645,6950.193,96.107,574.09,570.026,0.0
56796.0,STARLINK-6049,PAYLOAD,2023-11-04 12:46:50,14.98338976,0.0002902,69.9995,343.2321,268.3446,91.7381,-2.7437e-05,-4.2e-06,0.0,0 STARLINK-6049,1 56796U 23078AF  23308.53252763 -.00000420  00000-0 -27437-4 0  9997,2 56796  69.9995 343.2321 0002902 268.3446  91.7381 14.98338976 24436,6950.165,96.106,574.047,570.013,0.0
56796.0,STARLINK-6049,PAYLOAD,2023-11-04 19:11:21,14.983659,0.0003204,69.9999,342.5583,271.2525,88.8267,-0.00051849,-6.28e-05,0.0,0 STARLINK-6049,1 56796U 23078AF  23308.79955956 -.00006280  00000-0 -51849-3 0  9992,2 56796  69.9999 342.5583 0003204 271.2525  88.8267 14.98365900 24739,6950.082,96.105,574.174,569.72,0.0
56796.0,STARLINK-6049,PAYLOAD,2023-11-05 04:48:11,14.98332068,0.000285,69.9995,341.5489,267.3183,92.765,7.9132e-05,8.51e-06,0.0,0 STARLINK-6049,1 56796U 23078AF  23309.20012854  .00000851  00000-0  79132-4 0  9992,2 56796  69.9995 341.5489 0002850 267.3183  92.7650 14.98332068 24796,6950.186,96.107,574.032,570.071,0.0
56796.0,STARLINK-6049,PAYLOAD,2023-11-05 11:12:43,14.9833357,0.000265,69.9998,340.8756,264.0215,96.0642,0.00011299,1.256e-05,0.0,0 STARLINK-6049,1 56796U 23078AF  23309.46716619  .00001256  00000-0  11299-3 0  9999,2 56796  69.9998 340.8756 0002650 264.0215  96.0642 14.98333570 24579,6950.182,96.107,573.889,570.205,0.0
56796.0,STARLINK-6049,PAYLOAD,2023-11-05 19:13:22,14.98369458,0.0002842,69.9998,340.0333,280.4516,79.6322,-0.00054837,-6.636e-05,0.0,0 STARLINK-6049,1 56796U 23078AF  23309.80095749 -.00006636  00000-0 -54837-3 0  9995,2 56796  69.9998 340.0333 0002842 280.4516  79.6322 14.98369458 24881,6950.071,96.104,573.911,569.961,0.0
56796.0,STARLINK-6049,PAYLOAD,2023-11-06 03:14:03,14.98334149,0.0002737,70.0,339.1934,269.6886,90.3959,4.8378e-05,4.84e-06,0.0,0 STARLINK-6049,1 56796U 23078AF  23310.13476521  .00000484  00000-0  48378-4 0  9991,2 56796  70.0000 339.1934 0002737 269.6886  90.3959 14.98334149 24937,6950.18,96.107,573.947,570.143,0.0
56796.0,STARLINK-6049,PAYLOAD,2023-11-06 11:14:43,14.98342362,0.0002831,69.9992,338.3497,271.456,88.6274,8.9018e-05,9.7e-06,0.0,0 STARLINK-6049,1 56796U 23078AF  23310.46855688  .00000970  00000-0  89018-4 0  9998,2 56796  69.9992 338.3497 0002831 271.4560  88.6274 14.98342362 24985,6950.155,96.106,573.987,570.052,0.0
56796.0,STARLINK-6049,PAYLOAD,2023-11-06 19:15:24,14.98333202,0.0002943,69.999,337.5078,272.791,87.2912,-0.00015676,-1.963e-05,0.0,0 STARLINK-6049,1 56796U 23078AF  23310.80236740 -.00001963  00000-0 -15676-3 0  9991,2 56796  69.9990 337.5078 0002943 272.7910  87.2912 14.98333202 25030,6950.183,96.107,574.093,570.003,0.0
56796.0,STARLINK-6049,PAYLOAD,2023-11-07 03:16:07,14.98301926,0.0002772,69.9996,336.6673,265.2532,94.831,-0.00038322,-4.659e-05,0.0,0 STARLINK-6049,1 56796U 23078AF  23311.13619647 -.00004659  00000-0 -38322-3 0  9997,2 56796  69.9996 336.6673 0002772 265.2532  94.8310 14.98301926 25083,6950.28,96.109,574.071,570.218,0.0
56796.0,STARLINK-6049,PAYLOAD,2023-11-07 11:16:47,14.98304147,0.0002688,69.9997,335.8261,263.2821,96.8032,-0.00032261,-3.937e-05,0.0,0 STARLINK-6049,1 56796U 23078AF  23311.46999851 -.00003937  00000-0 -32261-3 0  9995,2 56796  69.9997 335.8261 0002688 263.2821  96.8032 14.98304147 24870,6950.273,96.109,574.006,570.27,0.0
56796.0,STARLINK-6049,PAYLOAD,2023-11-07 19:17:27,14.98314308,0.0002673,70.0007,334.9854,269.7579,90.3274,-0.00015735,-1.969e-05,0.0,0 STARLINK-6049,1 56796U 23078AF  23311.80379207 -.00001969  00000-0 -15735-3 0  9990,2 56796  70.0007 334.9854 0002673 269.7579  90.3274 14.98314308 25180,6950.241,96.108,573.964,570.249,0.0
56796.0,STARLINK-6049,PAYLOAD,2023-11-08 11:18:48,14.98318006,0.0002686,69.9993,333.2999,266.8727,93.2125,-0.00014889,-1.868e-05,0.0,0 STARLINK-6049,1 56796U 23078AF  23312.47139384 -.00001868  00000-0 -14889-3 0  9991,2 56796  69.9993 333.2999 0002686 266.8727  93.2125 14.98318006 25029,6950.23,96.108,573.962,570.228,0.0
56796.0,STARLINK-6049,PAYLOAD,2023-11-08 19:19:28,14.98322791,0.0002052,70.0007,332.462,287.0732,73.0202,-0.00010115,-1.299e-05,0.0,0 STARLINK-6049,1 56796U 23078AF  23312.80519552 -.00001299  00000-0 -10115-3 0  9993,2 56796  70.0007 332.4620 0002052 287.0732  73.0202 14.98322791 25330,6950.215,96.107,573.506,570.654,0.0
56796.0,STARLINK-6049,PAYLOAD,2023-11-09 11:20:49,14.98316078,0.0002489,70.0005,330.7785,258.8403,101.2476,0.00034812,4.062e-05,0.0,0 STARLINK-6049,1 56796U 23078AF  23313.47279038  .00004062  00000-0  34812-3 0  9998,2 56796  70.0005 330.7785 0002489 258.8403 101.2476 14.98316078 25435,6950.236,96.108,573.831,570.371,0.0
56796.0,STARLINK-6049,PAYLOAD,2023-11-10 03:22:08,14.98340965,0.000268,70.0,329.0942,266.3377,93.7476,0.00019403,2.224e-05,0.0,0 STARLINK-6049,1 56796U 23078AF  23314.14037837  .00002224  00000-0  19403-3 0  9999,2 56796  70.0000 329.0942 0002680 266.3377  93.7476 14.98340965 25531,6950.159,96.106,573.887,570.161,0.0
